[{"OBJECT_NAME":"STARLINK-1724","OBJECT_ID":"2020-062BC","EPOCH":"2026-03-09T21:09:06.323616","MEAN_MOTION":15.52994502,"ECCENTRICITY":6.461e-5,"INCLINATION":53.03,"RA_OF_ASC_NODE":286.312,"ARG_OF_PERICENTER":290.0193,"MEAN_ANOMALY":70.0747,"EPHEMERIS_TYPE":0,"CLASSIFICATION_TYPE":"U","NORAD_CAT_ID":46375,"ELEMENT_SET_NO":999,"REV_AT_EPOCH":30559,"BSTAR":0.0019221523,"MEAN_MOTION_DOT":0.00123399,"MEAN_MOTION_DDOT":0},{"OBJECT_NAME":"ELECTRON KICK STAGE R\/B","OBJECT_ID":"2022-113C","EPOCH":"2026-03-09T17:52:10.444512","MEAN_MOTION":15.55580048,"ECCENTRICITY":0.00047816,"INCLINATION":97.4909,"RA_OF_ASC_NODE":143.5752,"ARG_OF_PERICENTER":190.5776,"MEAN_ANOMALY":169.5378,"EPHEMERIS_TYPE":0,"CLASSIFICATION_TYPE":"U","NORAD_CAT_ID":53817,"ELEMENT_SET_NO":999,"REV_AT_EPOCH":19274,"BSTAR":0.0010825537,"MEAN_MOTION_DOT":0.0007464,"MEAN_MOTION_DDOT":0}]
